GLOBALSTAR M075 [+]     
1 37192U 10054E   23230.84011802 -.00000097  00000+0  38581-4 0  9991
2 37192  51.9952  56.5062 0000596  79.9283 293.4622 12.62260373591978
GLOBALSTAR M073 [+]     
1 37193U 10054F   23230.71228019 -.00000082  00000+0  11993-3 0  9999
2 37193  52.0079 330.2080 0000660 107.0647  44.5212 12.62266420593467
GLOBALSTAR M083 [+]     
1 37739U 11033A   23231.17577870 -.00000088  00000+0  87596-4 0  9995
2 37739  51.9846 278.4414 0000571 143.4303 256.2290 12.62268788562857
GLOBALSTAR M088 [+]     
1 37740U 11033B   23230.19331253 -.00000117  00000+0 -74555-4 0  9996
2 37740  51.9715 187.4847 0000036 204.3465 168.4834 12.62264777558201
GLOBALSTAR M091 [+]     
1 37741U 11033C   23230.84664102 -.00000088  00000+0  89120-4 0  9991
2 37741  51.9991 147.8551 0000161  56.8003 345.7430 12.62265558559040
GLOBALSTAR M085 [+]     
1 37742U 11033D   23231.09760823 -.00000079  00000+0  13858-3 0  9991
2 37742  51.9864  98.7204 0000533  79.5464  84.8009 12.62266495559814
GLOBALSTAR M081 [+]     
1 37743U 11033E   23230.78020031 -.00000074  00000+0  16606-3 0  9996
2 37743  51.9954 102.0625 0000415  47.6729 352.9819 12.62270244559815
GLOBALSTAR M089 [+]     
1 37744U 11033F   23230.81388199 -.00000098  00000+0  33779-4 0  9990
2 37744  51.9935  56.3126 0000865  63.7020 310.0250 12.62266256560537
